GLOBALSTAR M075 [+]     
1 37192U 10054E   24081.81024128 -.00000077  00000+0  14766-3 0  9994
2 37192  51.9932 118.9269 0000358  90.7722  81.9405 12.62271893619242
GLOBALSTAR M073 [+]     
1 37193U 10054F   24081.33318569 -.00000102  00000+0  11354-4 0  9997
2 37193  52.0082  33.8484 0000580  77.0013  87.8923 12.62262534620641
GLOBALSTAR M083 [+]     
1 37739U 11033A   24081.50612321 -.00000075  00000+0  15834-3 0  9998
2 37739  51.9885 342.6760 0000509  59.2088 111.9380 12.62266810589684
GLOBALSTAR M088 [+]     
1 37740U 11033B   24081.61709869 -.00000090  00000+0  78216-4 0  9997
2 37740  51.9716 248.2083 0000702  83.6003 352.6639 12.62266336585243
GLOBALSTAR M091 [+]     
1 37741U 11033C   24081.61623990 -.00000105  00000+0 -61620-5 0  9998
2 37741  51.9985 210.9549 0000567  84.9514 287.7168 12.62272580586036
GLOBALSTAR M085 [+]     
1 37742U 11033D   24081.54406817 -.00000087  00000+0  93677-4 0  9992
2 37742  51.9857 162.6166 0000380  91.9643  11.7131 12.62268842586533
GLOBALSTAR M081 [+]     
1 37743U 11033E   24080.54076372 -.00000105  00000+0 -86594-5 0  9994
2 37743  51.9968 168.1831 0000585  94.0156   8.8449 12.62258160586932
GLOBALSTAR M089 [+]     
1 37744U 11033F   24081.54519215 -.00000073  00000+0  17339-3 0  9996
2 37744  51.9916 119.4341 0000851 107.8343  60.6322 12.62272567587527
